{
    "week": 289,
    "satellites": [
        {
            "Name": "COSMOS 2485 (747)",
            "Line1": "1 39155U 13019A   24296.38422672  .00000037  00000+0  00000+0 0  9992",
            "Line2": "2 39155  65.1021  93.8862 0022587 226.4515 133.3643  2.13101732 89432",
            "SatelliteNumber": "39155",
            "Classification": "U",
            "LaunchYear": "13",
            "LaunchNumber": "019",
            "PieceOfLaunch": "A",
            "EpochYear": "24",
            "EpochDay": 296.38422672,
            "FirstDerivativeMeanMotion": 3.7e-07,
            "SecondDerivativeMeanMotion": "00000+0",
            "BSTAR": "00000+0",
            "SetNumber": "999",
            "Inclination": 65.1021,
            "RAAN": 93.8862,
            "Eccentricity": 0.0022587,
            "ArgumentOfPerigee": 226.4515,
            "MeanAnomaly": 133.3643,
            "MeanMotion": 2.13101732,
            "RevolutionNumber": "8943"
        },
        {
            "Name": "COSMOS 2492 (754)",
            "Line1": "1 39620U 14012A   24297.27795923 -.00000060  00000+0  00000+0 0  9991",
            "Line2": "2 39620  65.6180 334.3182 0013389 308.5047  51.4337  2.13103189 82419",
            "SatelliteNumber": "39620",
            "Classification": "U",
            "LaunchYear": "14",
            "LaunchNumber": "012",
            "PieceOfLaunch": "A",
            "EpochYear": "24",
            "EpochDay": 297.27795923,
            "FirstDerivativeMeanMotion": -6e-07,
            "SecondDerivativeMeanMotion": "00000+0",
            "BSTAR": "00000+0",
            "SetNumber": "999",
            "Inclination": 65.618,
            "RAAN": 334.3182,
            "Eccentricity": 0.0013389,
            "ArgumentOfPerigee": 308.5047,
            "MeanAnomaly": 51.4337,
            "MeanMotion": 2.13103189,
            "RevolutionNumber": "8241"
        },
        {
            "Name": "COSMOS 2500 (755)",
            "Line1": "1 40001U 14032A   24296.04788074 -.00000061  00000+0  00000+0 0  9992",
            "Line2": "2 40001  65.5555 334.1549 0008982 214.2065 145.7946  2.13105917 80603",
            "SatelliteNumber": "40001",
            "Classification": "U",
            "LaunchYear": "14",
            "LaunchNumber": "032",
            "PieceOfLaunch": "A",
            "EpochYear": "24",
            "EpochDay": 296.04788074,
            "FirstDerivativeMeanMotion": -6.1e-07,
            "SecondDerivativeMeanMotion": "00000+0",
            "BSTAR": "00000+0",
            "SetNumber": "999",
            "Inclination": 65.5555,
            "RAAN": 334.1549,
            "Eccentricity": 0.0008982,
            "ArgumentOfPerigee": 214.2065,
            "MeanAnomaly": 145.7946,
            "MeanMotion": 2.13105917,
            "RevolutionNumber": "8060"
        },
        {
            "Name": "COSMOS 2501 (702K)",
            "Line1": "1 40315U 14075A   24296.30247593 -.00000002  00000+0  00000+0 0  9997",
            "Line2": "2 40315  63.6180 211.2605 0019854 207.9491 151.9807  2.13101342 77007",
            "SatelliteNumber": "40315",
            "Classification": "U",
            "LaunchYear": "14",
            "LaunchNumber": "075",
            "PieceOfLaunch": "A",
            "EpochYear": "24",
            "EpochDay": 296.30247593,
            "FirstDerivativeMeanMotion": -2e-08,
            "SecondDerivativeMeanMotion": "00000+0",
            "BSTAR": "00000+0",
            "SetNumber": "999",
            "Inclination": 63.618,
            "RAAN": 211.2605,
            "Eccentricity": 0.0019854,
            "ArgumentOfPerigee": 207.9491,
            "MeanAnomaly": 151.9807,
            "MeanMotion": 2.13101342,
            "RevolutionNumber": "7700"
        },
        {
            "Name": "COSMOS 2514 (751)",
            "Line1": "1 41330U 16008A   24297.22386438 -.00000060  00000+0  00000+0 0  9991",
            "Line2": "2 41330  65.3487 333.5921 0013050 217.3700 142.5967  2.13102908 67790",
            "SatelliteNumber": "41330",
            "Classification": "U",
            "LaunchYear": "16",
            "LaunchNumber": "008",
            "PieceOfLaunch": "A",
            "EpochYear": "24",
            "EpochDay": 297.22386438,
            "FirstDerivativeMeanMotion": -6e-07,
            "SecondDerivativeMeanMotion": "00000+0",
            "BSTAR": "00000+0",
            "SetNumber": "999",
            "Inclination": 65.3487,
            "RAAN": 333.5921,
            "Eccentricity": 0.001305,
            "ArgumentOfPerigee": 217.37,
            "MeanAnomaly": 142.5967,
            "MeanMotion": 2.13102908,
            "RevolutionNumber": "6779"
        },
        {
            "Name": "COSMOS 2522 (752)",
            "Line1": "1 42939U 17055A   24296.12517118  .00000001  00000+0  00000+0 0  9993",
            "Line2": "2 42939  64.0793 212.4303 0007867 237.7396 122.2188  2.13101928 55122",
            "SatelliteNumber": "42939",
            "Classification": "U",
            "LaunchYear": "17",
            "LaunchNumber": "055",
            "PieceOfLaunch": "A",
            "EpochYear": "24",
            "EpochDay": 296.12517118,
            "FirstDerivativeMeanMotion": 1e-08,
            "SecondDerivativeMeanMotion": "00000+0",
            "BSTAR": "00000+0",
            "SetNumber": "999",
            "Inclination": 64.0793,
            "RAAN": 212.4303,
            "Eccentricity": 0.0007867,
            "ArgumentOfPerigee": 237.7396,
            "MeanAnomaly": 122.2188,
            "MeanMotion": 2.13101928,
            "RevolutionNumber": "5512"
        },
        {
            "Name": "COSMOS 2527 (756)",
            "Line1": "1 43508U 18053A   24296.08458057  .00000035  00000+0  00000+0 0  9993",
            "Line2": "2 43508  65.2615  94.0745 0007783 213.9861 145.9670  2.13102276 49426",
            "SatelliteNumber": "43508",
            "Classification": "U",
            "LaunchYear": "18",
            "LaunchNumber": "053",
            "PieceOfLaunch": "A",
            "EpochYear": "24",
            "EpochDay": 296.08458057,
            "FirstDerivativeMeanMotion": 3.5e-07,
            "SecondDerivativeMeanMotion": "00000+0",
            "BSTAR": "00000+0",
            "SetNumber": "999",
            "Inclination": 65.2615,
            "RAAN": 94.0745,
            "Eccentricity": 0.0007783,
            "ArgumentOfPerigee": 213.9861,
            "MeanAnomaly": 145.967,
            "MeanMotion": 2.13102276,
            "RevolutionNumber": "4942"
        },
        {
            "Name": "COSMOS 2529 (757)",
            "Line1": "1 43687U 18086A   24297.12178130 -.00000013  00000+0  00000+0 0  9991",
            "Line2": "2 43687  64.2949 212.9433 0009202 260.8465  99.0823  2.13101989 46456",
            "SatelliteNumber": "43687",
            "Classification": "U",
            "LaunchYear": "18",
            "LaunchNumber": "086",
            "PieceOfLaunch": "A",
            "EpochYear": "24",
            "EpochDay": 297.1217813,
            "FirstDerivativeMeanMotion": -1.3e-07,
            "SecondDerivativeMeanMotion": "00000+0",
            "BSTAR": "00000+0",
            "SetNumber": "999",
            "Inclination": 64.2949,
            "RAAN": 212.9433,
            "Eccentricity": 0.0009202,
            "ArgumentOfPerigee": 260.8465,
            "MeanAnomaly": 99.0823,
            "MeanMotion": 2.13101989,
            "RevolutionNumber": "4645"
        },
        {
            "Name": "COSMOS 2534 (758)",
            "Line1": "1 44299U 19030A   24295.22877160  .00000012  00000+0  00000+0 0  9997",
            "Line2": "2 44299  64.3685 212.9726 0011376 283.3735 198.5349  2.13101918 42056",
            "SatelliteNumber": "44299",
            "Classification": "U",
            "LaunchYear": "19",
            "LaunchNumber": "030",
            "PieceOfLaunch": "A",
            "EpochYear": "24",
            "EpochDay": 295.2287716,
            "FirstDerivativeMeanMotion": 1.2e-07,
            "SecondDerivativeMeanMotion": "00000+0",
            "BSTAR": "00000+0",
            "SetNumber": "999",
            "Inclination": 64.3685,
            "RAAN": 212.9726,
            "Eccentricity": 0.0011376,
            "ArgumentOfPerigee": 283.3735,
            "MeanAnomaly": 198.5349,
            "MeanMotion": 2.13101918,
            "RevolutionNumber": "4205"
        },
        {
            "Name": "COSMOS 2544 (759)",
            "Line1": "1 44850U 19088A   24297.43651911  .00000046  00000+0  00000+0 0  9999",
            "Line2": "2 44850  65.2489  93.8638 0011813 246.4663 113.4153  2.13102061 37878",
            "SatelliteNumber": "44850",
            "Classification": "U",
            "LaunchYear": "19",
            "LaunchNumber": "088",
            "PieceOfLaunch": "A",
            "EpochYear": "24",
            "EpochDay": 297.43651911,
            "FirstDerivativeMeanMotion": 4.6e-07,
            "SecondDerivativeMeanMotion": "00000+0",
            "BSTAR": "00000+0",
            "SetNumber": "999",
            "Inclination": 65.2489,
            "RAAN": 93.8638,
            "Eccentricity": 0.0011813,
            "ArgumentOfPerigee": 246.4663,
            "MeanAnomaly": 113.4153,
            "MeanMotion": 2.13102061,
            "RevolutionNumber": "3787"
        }
    ]
}